[{"OBJECT_NAME":"STARLINK-1807","OBJECT_ID":"2020-073AN","EPOCH":"2025-12-03T05:17:51.161856","MEAN_MOTION":15.16037128,"ECCENTRICITY":0.00016866,"INCLINATION":53.0516,"RA_OF_ASC_NODE":310.3027,"ARG_OF_PERICENTER":333.2267,"MEAN_ANOMALY":26.8639,"EPHEMERIS_TYPE":0,"CLASSIFICATION_TYPE":"U","NORAD_CAT_ID":46706,"ELEMENT_SET_NO":999,"REV_AT_EPOCH":28265,"BSTAR":0.0013694531,"MEAN_MOTION_DOT":0.00026435,"MEAN_MOTION_DDOT":0},{"OBJECT_NAME":"STARLINK-1810","OBJECT_ID":"2020-073AR","EPOCH":"2025-12-03T08:00:01.999872","MEAN_MOTION":15.33264849,"ECCENTRICITY":0.00017816,"INCLINATION":53.0552,"RA_OF_ASC_NODE":327.1651,"ARG_OF_PERICENTER":75.41,"MEAN_ANOMALY":109.2907,"EPHEMERIS_TYPE":0,"CLASSIFICATION_TYPE":"U","NORAD_CAT_ID":46709,"ELEMENT_SET_NO":999,"REV_AT_EPOCH":580,"BSTAR":0.003461415,"MEAN_MOTION_DOT":0.00114192,"MEAN_MOTION_DDOT":0},{"OBJECT_NAME":"STARLINK-1814","OBJECT_ID":"2020-073AU","EPOCH":"2025-12-03T08:00:01.999872","MEAN_MOTION":15.47337388,"ECCENTRICITY":0.0015008,"INCLINATION":53.0509,"RA_OF_ASC_NODE":299.3588,"ARG_OF_PERICENTER":45.8296,"MEAN_ANOMALY":355.8511,"EPHEMERIS_TYPE":0,"CLASSIFICATION_TYPE":"U","NORAD_CAT_ID":46712,"ELEMENT_SET_NO":999,"REV_AT_EPOCH":589,"BSTAR":0.0043349447,"MEAN_MOTION_DOT":0.00232294,"MEAN_MOTION_DDOT":0},{"OBJECT_NAME":"STARLINK-1815","OBJECT_ID":"2020-073AV","EPOCH":"2025-12-03T08:00:01.999872","MEAN_MOTION":15.39294229,"ECCENTRICITY":0.00118045,"INCLINATION":53.0543,"RA_OF_ASC_NODE":306.2081,"ARG_OF_PERICENTER":56.7817,"MEAN_ANOMALY":33.1855,"EPHEMERIS_TYPE":0,"CLASSIFICATION_TYPE":"U","NORAD_CAT_ID":46713,"ELEMENT_SET_NO":999,"REV_AT_EPOCH":587,"BSTAR":0.0048209649,"MEAN_MOTION_DOT":0.00195743,"MEAN_MOTION_DDOT":0},{"OBJECT_NAME":"STARLINK-1816","OBJECT_ID":"2020-073AW","EPOCH":"2025-12-03T08:00:01.999872","MEAN_MOTION":15.43231266,"ECCENTRICITY":0.00092795,"INCLINATION":53.0541,"RA_OF_ASC_NODE":306.1115,"ARG_OF_PERICENTER":67.2887,"MEAN_ANOMALY":122.5959,"EPHEMERIS_TYPE":0,"CLASSIFICATION_TYPE":"U","NORAD_CAT_ID":46714,"ELEMENT_SET_NO":999,"REV_AT_EPOCH":587,"BSTAR":0.004442229,"MEAN_MOTION_DOT":0.00205667,"MEAN_MOTION_DDOT":0},{"OBJECT_NAME":"STARLINK-1817","OBJECT_ID":"2020-073AX","EPOCH":"2025-12-03T07:48:41.248224","MEAN_MOTION":15.06389593,"ECCENTRICITY":0.00016317,"INCLINATION":53.0572,"RA_OF_ASC_NODE":314.2121,"ARG_OF_PERICENTER":84.1544,"MEAN_ANOMALY":275.9631,"EPHEMERIS_TYPE":0,"CLASSIFICATION_TYPE":"U","NORAD_CAT_ID":46715,"ELEMENT_SET_NO":999,"REV_AT_EPOCH":28260,"BSTAR":4.5705748e-5,"MEAN_MOTION_DOT":3.99e-6,"MEAN_MOTION_DDOT":0},{"OBJECT_NAME":"STARLINK-1820","OBJECT_ID":"2020-073AZ","EPOCH":"2025-12-03T08:00:01.999872","MEAN_MOTION":15.49207556,"ECCENTRICITY":0.00111366,"INCLINATION":53.0529,"RA_OF_ASC_NODE":275.8897,"ARG_OF_PERICENTER":35.3644,"MEAN_ANOMALY":148.5537,"EPHEMERIS_TYPE":0,"CLASSIFICATION_TYPE":"U","NORAD_CAT_ID":46717,"ELEMENT_SET_NO":999,"REV_AT_EPOCH":585,"BSTAR":0.0030622507,"MEAN_MOTION_DOT":0.00173435,"MEAN_MOTION_DDOT":0},{"OBJECT_NAME":"STARLINK-1821","OBJECT_ID":"2020-073BA","EPOCH":"2025-12-03T04:29:53.853504","MEAN_MOTION":15.25070798,"ECCENTRICITY":0.00024568,"INCLINATION":53.0543,"RA_OF_ASC_NODE":316.5688,"ARG_OF_PERICENTER":57.8418,"MEAN_ANOMALY":302.2818,"EPHEMERIS_TYPE":0,"CLASSIFICATION_TYPE":"U","NORAD_CAT_ID":46718,"ELEMENT_SET_NO":999,"REV_AT_EPOCH":28256,"BSTAR":0.0011350842,"MEAN_MOTION_DOT":0.00028529,"MEAN_MOTION_DDOT":0},{"OBJECT_NAME":"STARLINK-1826","OBJECT_ID":"2020-073BF","EPOCH":"2025-12-03T08:00:01.999872","MEAN_MOTION":15.36607198,"ECCENTRICITY":0.00097825,"INCLINATION":53.0539,"RA_OF_ASC_NODE":282.0861,"ARG_OF_PERICENTER":80.1471,"MEAN_ANOMALY":119.4605,"EPHEMERIS_TYPE":0,"CLASSIFICATION_TYPE":"U","NORAD_CAT_ID":46723,"ELEMENT_SET_NO":999,"REV_AT_EPOCH":582,"BSTAR":0.0039829277,"MEAN_MOTION_DOT":0.00147072,"MEAN_MOTION_DDOT":0},{"OBJECT_NAME":"STARLINK-1828","OBJECT_ID":"2020-073BH","EPOCH":"2025-12-03T07:22:48.773280","MEAN_MOTION":15.06393744,"ECCENTRICITY":0.00014101,"INCLINATION":53.0566,"RA_OF_ASC_NODE":329.2937,"ARG_OF_PERICENTER":92.7683,"MEAN_ANOMALY":267.3467,"EPHEMERIS_TYPE":0,"CLASSIFICATION_TYPE":"U","NORAD_CAT_ID":46725,"ELEMENT_SET_NO":999,"REV_AT_EPOCH":28239,"BSTAR":0.00015162728,"MEAN_MOTION_DOT":1.977e-5,"MEAN_MOTION_DDOT":0},{"OBJECT_NAME":"STARLINK-1830","OBJECT_ID":"2020-073BK","EPOCH":"2025-12-03T07:54:11.148480","MEAN_MOTION":15.35071227,"ECCENTRICITY":0.00116294,"INCLINATION":53.0533,"RA_OF_ASC_NODE":281.9087,"ARG_OF_PERICENTER":72.5551,"MEAN_ANOMALY":287.6721,"EPHEMERIS_TYPE":0,"CLASSIFICATION_TYPE":"U","NORAD_CAT_ID":46727,"ELEMENT_SET_NO":999,"REV_AT_EPOCH":28306,"BSTAR":0.0029518537,"MEAN_MOTION_DOT":0.00103117,"MEAN_MOTION_DDOT":0},{"OBJECT_NAME":"STARLINK-1848","OBJECT_ID":"2020-074B","EPOCH":"2025-12-03T08:26:43.360800","MEAN_MOTION":15.53469541,"ECCENTRICITY":0.00032661,"INCLINATION":53.0492,"RA_OF_ASC_NODE":11.9487,"ARG_OF_PERICENTER":250.0711,"MEAN_ANOMALY":109.9946,"EPHEMERIS_TYPE":0,"CLASSIFICATION_TYPE":"U","NORAD_CAT_ID":46740,"ELEMENT_SET_NO":999,"REV_AT_EPOCH":28246,"BSTAR":0.00089336454,"MEAN_MOTION_DOT":0.00057616,"MEAN_MOTION_DDOT":0},{"OBJECT_NAME":"STARLINK-1892","OBJECT_ID":"2020-074E","EPOCH":"2025-12-03T08:06:56.339712","MEAN_MOTION":15.31087718,"ECCENTRICITY":0.00063143,"INCLINATION":53.0544,"RA_OF_ASC_NODE":28.6861,"ARG_OF_PERICENTER":19.9024,"MEAN_ANOMALY":340.2221,"EPHEMERIS_TYPE":0,"CLASSIFICATION_TYPE":"U","NORAD_CAT_ID":46743,"ELEMENT_SET_NO":999,"REV_AT_EPOCH":28223,"BSTAR":0.0021690803,"MEAN_MOTION_DOT":0.00066299,"MEAN_MOTION_DDOT":0},{"OBJECT_NAME":"STARLINK-1894","OBJECT_ID":"2020-074F","EPOCH":"2025-12-03T07:47:12.957792","MEAN_MOTION":15.44756418,"ECCENTRICITY":0.00089052,"INCLINATION":53.0557,"RA_OF_ASC_NODE":26.2782,"ARG_OF_PERICENTER":10.6995,"MEAN_ANOMALY":349.4198,"EPHEMERIS_TYPE":0,"CLASSIFICATION_TYPE":"U","NORAD_CAT_ID":46744,"ELEMENT_SET_NO":999,"REV_AT_EPOCH":28226,"BSTAR":0.002501329,"MEAN_MOTION_DOT":0.0012042,"MEAN_MOTION_DDOT":0},{"OBJECT_NAME":"STARLINK-1905","OBJECT_ID":"2020-074H","EPOCH":"2025-12-03T08:40:53.777856","MEAN_MOTION":15.40044309,"ECCENTRICITY":0.00080293,"INCLINATION":53.0535,"RA_OF_ASC_NODE":26.3568,"ARG_OF_PERICENTER":5.3741,"MEAN_ANOMALY":354.7348,"EPHEMERIS_TYPE":0,"CLASSIFICATION_TYPE":"U","NORAD_CAT_ID":46746,"ELEMENT_SET_NO":999,"REV_AT_EPOCH":28226,"BSTAR":0.0023048087,"MEAN_MOTION_DOT":0.00094342,"MEAN_MOTION_DDOT":0},{"OBJECT_NAME":"STARLINK-1911","OBJECT_ID":"2020-074L","EPOCH":"2025-12-03T07:19:04.782144","MEAN_MOTION":15.44537442,"ECCENTRICITY":0.00041697,"INCLINATION":53.0558,"RA_OF_ASC_NODE":26.0358,"ARG_OF_PERICENTER":51.2761,"MEAN_ANOMALY":308.8617,"EPHEMERIS_TYPE":0,"CLASSIFICATION_TYPE":"U","NORAD_CAT_ID":46749,"ELEMENT_SET_NO":999,"REV_AT_EPOCH":28226,"BSTAR":0.0018933194,"MEAN_MOTION_DOT":0.0008992,"MEAN_MOTION_DDOT":0}]
