STARLINK-1807           
1 46706U 20073AN  25337.22073104  .00026435  00000+0  13695-2 0  9999
2 46706  53.0516 310.3027 0001686 333.2267  26.8639 15.16037128282659
STARLINK-1810           
1 46709U 20073AR  25337.33335648  .00114192  00000+0  34614-2 0  9990
2 46709  53.0552 327.1651 0001781  75.4100 109.2907 15.33264849  5803
STARLINK-1814           
1 46712U 20073AU  25337.33335648  .00232294  00000+0  43349-2 0  9993
2 46712  53.0509 299.3588 0015008  45.8296 355.8511 15.47337388  5895
STARLINK-1815           
1 46713U 20073AV  25337.33335648  .00195743  00000+0  48210-2 0  9993
2 46713  53.0543 306.2081 0011804  56.7817  33.1855 15.39294229  5872
STARLINK-1816           
1 46714U 20073AW  25337.33335648  .00205667  00000+0  44422-2 0  9992
2 46714  53.0541 306.1115 0009279  67.2887 122.5959 15.43231266  5870
STARLINK-1817           
1 46715U 20073AX  25337.32547741  .00000399  00000+0  45706-4 0  9994
2 46715  53.0572 314.2121 0001631  84.1544 275.9631 15.06389593282608
STARLINK-1820           
1 46717U 20073AZ  25337.33335648  .00173435  00000+0  30623-2 0  9990
2 46717  53.0529 275.8897 0011136  35.3644 148.5537 15.49207556  5859
STARLINK-1821           
1 46718U 20073BA  25337.18742886  .00028529  00000+0  11351-2 0  9990
2 46718  53.0543 316.5688 0002456  57.8418 302.2818 15.25070798282566
STARLINK-1826           
1 46723U 20073BF  25337.33335648  .00147072  00000+0  39829-2 0  9992
2 46723  53.0539 282.0861 0009782  80.1471 119.4605 15.36607198  5820
STARLINK-1828           
1 46725U 20073BH  25337.30750895  .00001977  00000+0  15163-3 0  9995
2 46725  53.0566 329.2937 0001410  92.7683 267.3467 15.06393744282398
STARLINK-1830           
1 46727U 20073BK  25337.32929570  .00103117  00000+0  29519-2 0  9995
2 46727  53.0533 281.9087 0011629  72.5551 287.6721 15.35071227283061
STARLINK-1848           
1 46740U 20074B   25337.35189075  .00057616  00000+0  89336-3 0  9998
2 46740  53.0492  11.9487 0003266 250.0711 109.9946 15.53469541282462
STARLINK-1892           
1 46743U 20074E   25337.33815208  .00066299  00000+0  21691-2 0  9999
2 46743  53.0544  28.6861 0006314  19.9024 340.2221 15.31087718282239
STARLINK-1894           
1 46744U 20074F   25337.32445553  .00120420  00000+0  25013-2 0  9990
2 46744  53.0557  26.2782 0008905  10.6995 349.4198 15.44756418282264
STARLINK-1905           
1 46746U 20074H   25337.36173354  .00094342  00000+0  23048-2 0  9992
2 46746  53.0535  26.3568 0008029   5.3741 354.7348 15.40044309282263
STARLINK-1911           
1 46749U 20074L   25337.30491646  .00089920  00000+0  18933-2 0  9999
2 46749  53.0558  26.0358 0004169  51.2761 308.8617 15.44537442282266
